{
  "type": "FeatureCollection",
  "features": [
    {
      "type": "Feature",
      "properties": {
        "norad_id": 41556,
        "name": "ZIYUAN 3-2 (ZY 3-2)",
        "group": "resource",
        "lat": 81.05952413405343,
        "lon": -63.667122514143166,
        "alt_km": 501.6821081892722,
        "timestamp": "2025-12-12T09:49:08.385282+00:00",
        "meta_object_name": "ZIYUAN 3-2 (ZY 3-2)",
        "meta_object_id": "2016-033A",
        "meta_epoch": "2025-12-12T04:40:00.858432",
        "meta_mean_motion": 15.21491137,
        "meta_eccentricity": 0.0012432,
        "meta_inclination": 97.4041,
        "meta_ra_of_asc_node": 60.3704,
        "meta_arg_of_pericenter": 251.07,
        "meta_mean_anomaly": 108.9189,
        "meta_ephemeris_type": 0,
        "meta_classification_type": "U",
        "meta_norad_cat_id": 41556,
        "meta_element_set_no": 999,
        "meta_rev_at_epoch": 52955,
        "meta_bstar": 0.00047958,
        "meta_mean_motion_dot": 0.00010747,
        "meta_mean_motion_ddot": 0,
        "tle_line1": "1 41556U 16033A   25346.19445438  .00010747  00000+0  47958-3 0  9996",
        "tle_line2": "2 41556  97.4041  60.3704 0012432 251.0700 108.9189 15.21491137529551"
      },
      "geometry": {
        "type": "Point",
        "coordinates": [
          -63.667122514143166,
          81.05952413405343
        ]
      }
    },
    {
      "type": "Feature",
      "properties": {
        "norad_id": 41599,
        "name": "CARTOSAT-2C",
        "group": "resource",
        "lat": 41.05144651836002,
        "lon": 37.09533679354148,
        "alt_km": 497.958772201433,
        "timestamp": "2025-12-12T09:49:08.385293+00:00",
        "meta_object_name": "CARTOSAT-2C",
        "meta_object_id": "2016-040A",
        "meta_epoch": "2025-12-12T04:53:42.811008",
        "meta_mean_motion": 15.19290123,
        "meta_eccentricity": 0.0010907,
        "meta_inclination": 97.4767,
        "meta_ra_of_asc_node": 43.4596,
        "meta_arg_of_pericenter": 67.2334,
        "meta_mean_anomaly": 293.0051,
        "meta_ephemeris_type": 0,
        "meta_classification_type": "U",
        "meta_norad_cat_id": 41599,
        "meta_element_set_no": 999,
        "meta_rev_at_epoch": 52532,
        "meta_bstar": 0.00041281,
        "meta_mean_motion_dot": 8.659e-05,
        "meta_mean_motion_ddot": 0,
        "tle_line1": "1 41599U 16040A   25346.20396772  .00008659  00000+0  41281-3 0  9991",
        "tle_line2": "2 41599  97.4767  43.4596 0010907  67.2334 293.0051 15.19290123525323"
      },
      "geometry": {
        "type": "Point",
        "coordinates": [
          37.09533679354148,
          41.05144651836002
        ]
      }
    },
    {
      "type": "Feature",
      "properties": {
        "norad_id": 41601,
        "name": "SKYSAT-C1",
        "group": "resource",
        "lat": 78.63139549697458,
        "lon": -14.119496300782249,
        "alt_km": 460.12005576633874,
        "timestamp": "2025-12-12T09:49:08.385304+00:00",
        "meta_object_name": "SKYSAT-C1",
        "meta_object_id": "2016-040C",
        "meta_epoch": "2025-12-12T01:37:54.883776",
        "meta_mean_motion": 15.32569887,
        "meta_eccentricity": 0.0002447,
        "meta_inclination": 96.983,
        "meta_ra_of_asc_node": 23.1193,
        "meta_arg_of_pericenter": 16.8765,
        "meta_mean_anomaly": 343.2559,
        "meta_ephemeris_type": 0,
        "meta_classification_type": "U",
        "meta_norad_cat_id": 41601,
        "meta_element_set_no": 999,
        "meta_rev_at_epoch": 52917,
        "meta_bstar": 0.00044349,
        "meta_mean_motion_dot": 0.00013887,
        "meta_mean_motion_ddot": 0,
        "tle_line1": "1 41601U 16040C   25346.06799634  .00013887  00000+0  44349-3 0  9990",
        "tle_line2": "2 41601  96.9830  23.1193 0002447  16.8765 343.2559 15.32569887529177"
      },
      "geometry": {
        "type": "Point",
        "coordinates": [
          -14.119496300782249,
          78.63139549697458
        ]
      }
    },
    {
      "type": "Feature",
      "properties": {
        "norad_id": 41603,
        "name": "LAPAN-A3",
        "group": "resource",
        "lat": -45.5109342926196,
        "lon": 156.64242827275316,
        "alt_km": 480.2273993998897,
        "timestamp": "2025-12-12T09:49:08.385314+00:00",
        "meta_object_name": "LAPAN-A3",
        "meta_object_id": "2016-040E",
        "meta_epoch": "2025-12-12T05:41:56.029920",
        "meta_mean_motion": 15.31544358,
        "meta_eccentricity": 0.0009718,
        "meta_inclination": 97.1433,
        "meta_ra_of_asc_node": 343.8119,
        "meta_arg_of_pericenter": 335.9408,
        "meta_mean_anomaly": 24.1379,
        "meta_ephemeris_type": 0,
        "meta_classification_type": "U",
        "meta_norad_cat_id": 41603,
        "meta_element_set_no": 999,
        "meta_rev_at_epoch": 52618,
        "meta_bstar": 0.00020549,
        "meta_mean_motion_dot": 6.193e-05,
        "meta_mean_motion_ddot": 0,
        "tle_line1": "1 41603U 16040E   25346.23745405  .00006193  00000+0  20549-3 0  9996",
        "tle_line2": "2 41603  97.1433 343.8119 0009718 335.9408  24.1379 15.31544358526186"
      },
      "geometry": {
        "type": "Point",
        "coordinates": [
          156.64242827275316,
          -45.5109342926196
        ]
      }
    },
    {
      "type": "Feature",
      "properties": {
        "norad_id": 41604,
        "name": "BIROS",
        "group": "resource",
        "lat": -20.031354855503785,
        "lon": 20.42219696290104,
        "alt_km": 311.05029460486094,
        "timestamp": "2025-12-12T09:49:08.385325+00:00",
        "meta_object_name": "BIROS",
        "meta_object_id": "2016-040F",
        "meta_epoch": "2025-12-12T02:20:56.988384",
        "meta_mean_motion": 15.89451278,
        "meta_eccentricity": 0.0003301,
        "meta_inclination": 97.07,
        "meta_ra_of_asc_node": 17.5048,
        "meta_arg_of_pericenter": 153.1943,
        "meta_mean_anomaly": 206.9502,
        "meta_ephemeris_type": 0,
        "meta_classification_type": "U",
        "meta_norad_cat_id": 41604,
        "meta_element_set_no": 999,
        "meta_rev_at_epoch": 52862,
        "meta_bstar": 0.0006906,
        "meta_mean_motion_dot": 0.00199195,
        "meta_mean_motion_ddot": 1.6198e-05,
        "tle_line1": "1 41604U 16040F   25346.09788181  .00199195  16198-4  69060-3 0  9995",
        "tle_line2": "2 41604  97.0700  17.5048 0003301 153.1943 206.9502 15.89451278528625"
      },
      "geometry": {
        "type": "Point",
        "coordinates": [
          20.42219696290104,
          -20.031354855503785
        ]
      }
    },
    {
      "type": "Feature",
      "properties": {
        "norad_id": 41727,
        "name": "GAOFEN-3",
        "group": "resource",
        "lat": 68.87025052408796,
        "lon": -165.50871572512614,
        "alt_km": 743.7982908477597,
        "timestamp": "2025-12-12T09:49:08.385335+00:00",
        "meta_object_name": "GAOFEN-3",
        "meta_object_id": "2016-049A",
        "meta_epoch": "2025-12-12T05:59:00.363264",
        "meta_mean_motion": 14.42213277,
        "meta_eccentricity": 0.0001445,
        "meta_inclination": 98.4042,
        "meta_ra_of_asc_node": 351.8428,
        "meta_arg_of_pericenter": 61.9079,
        "meta_mean_anomaly": 298.2256,
        "meta_ephemeris_type": 0,
        "meta_classification_type": "U",
        "meta_norad_cat_id": 41727,
        "meta_element_set_no": 999,
        "meta_rev_at_epoch": 49170,
        "meta_bstar": 4.935e-05,
        "meta_mean_motion_dot": 1.19e-06,
        "meta_mean_motion_ddot": 0,
        "tle_line1": "1 41727U 16049A   25346.24930976  .00000119  00000+0  49350-4 0  9996",
        "tle_line2": "2 41727  98.4042 351.8428 0001445  61.9079 298.2256 14.42213277491705"
      },
      "geometry": {
        "type": "Point",
        "coordinates": [
          -165.50871572512614,
          68.87025052408796
        ]
      }
    },
    {
      "type": "Feature",
      "properties": {
        "norad_id": 41771,
        "name": "SKYSAT-C4",
        "group": "resource",
        "lat": 4.569755366155149,
        "lon": 11.05486819482803,
        "alt_km": 442.6582750298667,
        "timestamp": "2025-12-12T09:49:08.385346+00:00",
        "meta_object_name": "SKYSAT-C4",
        "meta_object_id": "2016-058B",
        "meta_epoch": "2025-12-12T00:27:20.747232",
        "meta_mean_motion": 15.42215688,
        "meta_eccentricity": 0.0001466,
        "meta_inclination": 96.9379,
        "meta_ra_of_asc_node": 11.2413,
        "meta_arg_of_pericenter": 133.9929,
        "meta_mean_anomaly": 226.1441,
        "meta_ephemeris_type": 0,
        "meta_classification_type": "U",
        "meta_norad_cat_id": 41771,
        "meta_element_set_no": 999,
        "meta_rev_at_epoch": 51656,
        "meta_bstar": 0.00046677,
        "meta_mean_motion_dot": 0.00019985,
        "meta_mean_motion_ddot": 0,
        "tle_line1": "1 41771U 16058B   25346.01899013  .00019985  00000+0  46677-3 0  9995",
        "tle_line2": "2 41771  96.9379  11.2413 0001466 133.9929 226.1441 15.42215688516565"
      },
      "geometry": {
        "type": "Point",
        "coordinates": [
          11.05486819482803,
          4.569755366155149
        ]
      }
    }
  ]
}